0 COSMOS 2251 DEB
1 34912U 93036ADH 13281.39487410  .00006555  00000-0  13153-2 0  7434
2 34912 074.1726 062.4271 0081070 169.1943 222.5180 14.59787411241249
0 COSMOS 2251 DEB
1 34912U 93036ADH 13282.42775274  .00011024  00000-0  22056-2 0  7447
2 34912 074.1725 060.4730 0080913 166.9515 250.5517 14.59813753241391
0 COSMOS 2251 DEB
1 34912U 93036ADH 13283.73085770  .00009824  00000-0  19658-2 0  7457
2 34912 074.1724 058.0073 0080813 164.0879 258.8497 14.59833663241585
0 COSMOS 2251 DEB
1 34912U 93036ADH 13287.43226679  .00008453  00000-0  16915-2 0  7475
2 34912 074.1728 051.0030 0080410 155.9612 271.6208 14.59885911242129
0 COSMOS 2251 DEB
1 34912U 93036ADH 13289.01883365  .00011233  00000-0  22436-2 0  7488
2 34912 074.1737 048.0016 0080210 152.4517 330.1151 14.59920071242353
0 COSMOS 2251 DEB
1 34912U 93036ADH 13290.30314440  .00010759  00000-0  21484-2 0  7490
2 34912 074.1738 045.5707 0080136 149.5831 240.1978 14.59941273242541
0 COSMOS 2251 DEB
1 34912U 93036ADH 13292.36385216  .00008679  00000-0  17337-2 0  7509
2 34912 074.1741 041.6714 0079969 145.0150 271.0628 14.59979540242843
0 COSMOS 2251 DEB
1 34912U 93036ADH 13294.70753032  .00010597  00000-0  21138-2 0  7511
2 34912 074.1738 037.2365 0079685 139.8446 349.4868 14.60014728243180
